[{"OBJECT_NAME":"STARLINK-4375","OBJECT_ID":"2022-084D","EPOCH":"2026-03-09T17:37:42.898656","MEAN_MOTION":15.05650501,"ECCENTRICITY":6.03e-6,"INCLINATION":97.6036,"RA_OF_ASC_NODE":131.2511,"ARG_OF_PERICENTER":146.3134,"MEAN_ANOMALY":213.8096,"EPHEMERIS_TYPE":0,"CLASSIFICATION_TYPE":"U","NORAD_CAT_ID":53192,"ELEMENT_SET_NO":999,"REV_AT_EPOCH":20005,"BSTAR":2.0204406e-5,"MEAN_MOTION_DOT":2.31e-6,"MEAN_MOTION_DDOT":0},{"OBJECT_NAME":"COSMOS 2251 DEB","OBJECT_ID":"1993-036SS","EPOCH":"2026-03-09T22:59:54.978144","MEAN_MOTION":15.02003149,"ECCENTRICITY":0.00206055,"INCLINATION":74.0288,"RA_OF_ASC_NODE":253.6967,"ARG_OF_PERICENTER":277.4018,"MEAN_ANOMALY":234.4946,"EPHEMERIS_TYPE":0,"CLASSIFICATION_TYPE":"U","NORAD_CAT_ID":34449,"ELEMENT_SET_NO":999,"REV_AT_EPOCH":89999,"BSTAR":0.0029470254,"MEAN_MOTION_DOT":0.00038984,"MEAN_MOTION_DDOT":0}]
